STARLINK-35817          
1 66357U 25254K   25325.91670139 -.00050149  00000+0 -33984-3 0  9998
2 66357  53.1586  18.2758 0000781  96.6693 217.6275 15.74210934  3574
STARLINK-35807          
1 66358U 25254L   25325.91670139  .00109434  00000+0  74402-3 0  9999
2 66358  53.1636  18.2710 0001327  88.2411 227.9856 15.74120427  3577
STARLINK-35805          
1 66359U 25254M   25325.91670139  .00028392  00000+0  19786-3 0  9997
2 66359  53.1639  18.2675 0001275  95.2663 222.8861 15.74147255  3545
STARLINK-35823          
1 66360U 25254N   25325.91670139  .00138547  00000+0  93764-3 0  9991
2 66360  53.1585  18.2591 0000955  96.4420 225.5284 15.74118791  3577
STARLINK-35813          
1 66361U 25254P   25325.91670139  .00042280  00000+0  29200-3 0  9994
2 66361  53.1636  18.2635 0000996  91.5191 228.5312 15.74151763  3571
STARLINK-35822          
1 66362U 25254Q   25325.91670139  .00105922  00000+0  72035-3 0  9992
2 66362  53.1586  18.2513 0000988 106.8752 218.9296 15.74128251  3575
STARLINK-35806          
1 66363U 25254R   25325.91670139  .00162827  00000+0  10983-2 0  9993
2 66363  53.1584  18.2553 0001171  88.9718 234.9178 15.74113472  3548
STARLINK-35797          
1 66364U 25254S   25325.91670139 -.00036852  00000+0 -24819-3 0  9998
2 66364  53.1586  18.2470 0001097  73.2596 254.4359 15.74210531  3572
STARLINK-35827          
1 66365U 25254T   25325.91670139  .00112635  00000+0  76528-3 0  9995
2 66365  53.1585  18.2400 0000992  84.7102 246.8515 15.74123408  3540
STARLINK-35845          
1 66366U 25254U   25325.91670139  .00171335  00000+0  11546-2 0  9996
2 66366  53.1584  18.2432 0001402 102.6975 226.9445 15.74107284  3578
STARLINK-35846          
1 66367U 25254V   25325.91670139  .00162630  00000+0  10976-2 0  9991
2 66367  53.1585  18.2351 0001228 101.5771 231.9090 15.74100358  3520
STARLINK-34861          
1 66368U 25254W   25325.91670139  .00160921  00000+0  10867-2 0  9992
2 66368  53.1583  18.2261 0001455  98.4726 238.8533 15.74092506  3629
